start=new Date('2021-12-17T00:00:00.000Z').valueOf();
sats=[{"ELEMENT_SET_NO":"999","MEAN_ANOMALY":"301.3864","REV_AT_EPOCH":"3965","COUNTRY_CODE":"US","INCLINATION":"53.0561","CLASSIFICATION_TYPE":"U","OBJECT_ID":"2021-027X","REF_FRAME":"TEME","TLE_LINE2":"2 48113  53.0561 263.9123 0002562  58.7376 301.3864 15.06386658 39652","RA_OF_ASC_NODE":"263.9123","SEMIMAJOR_AXIS":"6925.389","OBJECT_TYPE":"PAYLOAD","MEAN_MOTION_DOT":"0.00000825","MEAN_ELEMENT_THEORY":"SGP4","NORAD_CAT_ID":"48113","MEAN_MOTION_DDOT":"0.0000000000000","DECAY_DATE":null,"MEAN_MOTION":"15.06386658","SITE":"AFETR","BSTAR":"0.00007433000000","OBJECT_NAME":"STARLINK-2450","GP_ID":"191828077","ECCENTRICITY":"0.00025620","ARG_OF_PERICENTER":"58.7376","EPOCH":"2021-12-16T11:10:17.316480","PERIAPSIS":"545.480","LAUNCH_DATE":"2021-04-07","FILE":"3241867","TLE_LINE1":"1 48113U 21027X   21350.46547820  .00000825  00000-0  74330-4 0  9992","EPHEMERIS_TYPE":"0","PERIOD":"95.593","TIME_SYSTEM":"UTC","CENTER_NAME":"EARTH","RCS_SIZE":"LARGE","APOAPSIS":"549.029"},{"EPOCH":"2021-12-16T21:22:37.865856","ARG_OF_PERICENTER":"61.5880","PERIAPSIS":"545.477","ECCENTRICITY":"0.00025180","GP_ID":"191861970","CENTER_NAME":"EARTH","RCS_SIZE":"LARGE","APOAPSIS":"548.964","TIME_SYSTEM":"UTC","LAUNCH_DATE":"2021-04-07","EPHEMERIS_TYPE":"0","TLE_LINE1":"1 48114U 21027Y   21350.89071604  .00000148  00000-0  28873-4 0  9991","FILE":"3242223","PERIOD":"95.592","CLASSIFICATION_TYPE":"U","OBJECT_ID":"2021-027Y","REF_FRAME":"TEME","TLE_LINE2":"2 48114  53.0563 257.0102 0002518  61.5880 298.5363 15.06397775 39809","COUNTRY_CODE":"US","INCLINATION":"53.0563","MEAN_ANOMALY":"298.5363","REV_AT_EPOCH":"3980","ELEMENT_SET_NO":"999","BSTAR":"0.00002887300000","OBJECT_NAME":"STARLINK-2451","MEAN_MOTION_DDOT":"0.0000000000000","DECAY_DATE":null,"MEAN_MOTION":"15.06397775","SITE":"AFETR","OBJECT_TYPE":"PAYLOAD","MEAN_MOTION_DOT":"0.00000148","MEAN_ELEMENT_THEORY":"SGP4","NORAD_CAT_ID":"48114","RA_OF_ASC_NODE":"257.0102","SEMIMAJOR_AXIS":"6925.355"},{"INCLINATION":"53.0549","COUNTRY_CODE":"US","REF_FRAME":"TEME","TLE_LINE2":"2 48115  53.0549 251.8712 0002794  68.0905 292.0381 15.06411550 39873","CLASSIFICATION_TYPE":"U","OBJECT_ID":"2021-027Z","ELEMENT_SET_NO":"999","REV_AT_EPOCH":"3987","MEAN_ANOMALY":"292.0381","MEAN_MOTION":"15.06411550","SITE":"AFETR","DECAY_DATE":null,"MEAN_MOTION_DDOT":"0.0000000000000","OBJECT_NAME":"STARLINK-2452","BSTAR":"0.00027463000000","SEMIMAJOR_AXIS":"6925.313","RA_OF_ASC_NODE":"251.8712","NORAD_CAT_ID":"48115","MEAN_MOTION_DOT":"0.00003812","MEAN_ELEMENT_THEORY":"SGP4","OBJECT_TYPE":"PAYLOAD","PERIAPSIS":"545.243","EPOCH":"2021-12-16T22:03:05.851872","ARG_OF_PERICENTER":"68.0905","GP_ID":"191860718","ECCENTRICITY":"0.00027940","TIME_SYSTEM":"UTC","RCS_SIZE":"LARGE","APOAPSIS":"549.113","CENTER_NAME":"EARTH","PERIOD":"95.591","TLE_LINE1":"1 48115U 21027Z   21350.91881773  .00003812  00000-0  27463-3 0  9995","FILE":"3242223","EPHEMERIS_TYPE":"0","LAUNCH_DATE":"2021-04-07"},{"LAUNCH_DATE":"2021-04-07","TLE_LINE1":"1 48116U 21027AA  21351.05890692  .00001084  00000-0  91691-4 0  9996","FILE":"3242221","EPHEMERIS_TYPE":"0","PERIOD":"95.592","CENTER_NAME":"EARTH","RCS_SIZE":"LARGE","APOAPSIS":"548.790","TIME_SYSTEM":"UTC","ECCENTRICITY":"0.00022890","GP_ID":"191839226","ARG_OF_PERICENTER":"64.3277","EPOCH":"2021-12-17T01:24:49.557888","PERIAPSIS":"545.620","OBJECT_TYPE":"PAYLOAD","MEAN_ELEMENT_THEORY":"SGP4","MEAN_MOTION_DOT":"0.00001084","NORAD_CAT_ID":"48116","RA_OF_ASC_NODE":"261.2535","SEMIMAJOR_AXIS":"6925.340","BSTAR":"0.00009169100000","OBJECT_NAME":"STARLINK-2454","MEAN_MOTION_DDOT":"0.0000000000000","DECAY_DATE":null,"SITE":"AFETR","MEAN_MOTION":"15.06402700","MEAN_ANOMALY":"295.7948","REV_AT_EPOCH":"3935","ELEMENT_SET_NO":"999","OBJECT_ID":"2021-027AA","CLASSIFICATION_TYPE":"U","TLE_LINE2":"2 48116  53.0524 261.2535 0002289  64.3277 295.7948 15.06402700 39354","REF_FRAME":"TEME","COUNTRY_CODE":"US","INCLINATION":"53.0524"},{"REV_AT_EPOCH":"4001","MEAN_ANOMALY":"296.8847","ELEMENT_SET_NO":"999","OBJECT_ID":"2021-027AB","CLASSIFICATION_TYPE":"U","TLE_LINE2":"2 48117  53.0549 241.9599 0002598  63.2408 296.8847 15.06397782 40012","REF_FRAME":"TEME","INCLINATION":"53.0549","COUNTRY_CODE":"US","OBJECT_TYPE":"PAYLOAD","NORAD_CAT_ID":"48117","MEAN_ELEMENT_THEORY":"SGP4","MEAN_MOTION_DOT":"0.00000552","SEMIMAJOR_AXIS":"6925.355","RA_OF_ASC_NODE":"241.9599","BSTAR":"0.00005597800000","OBJECT_NAME":"STARLINK-2455","MEAN_MOTION_DDOT":"0.0000000000000","MEAN_MOTION":"15.06397782","SITE":"AFETR","DECAY_DATE":null,"GP_ID":"191861720","ECCENTRICITY":"0.00025980","EPOCH":"2021-12-16T21:33:56.817792","ARG_OF_PERICENTER":"63.2408","PERIAPSIS":"545.421","EPHEMERIS_TYPE":"0","TLE_LINE1":"1 48117U 21027AB  21350.89857428  .00000552  00000-0  55978-4 0  9995","FILE":"3242223","LAUNCH_DATE":"2021-04-07","PERIOD":"95.592","APOAPSIS":"549.020","RCS_SIZE":"LARGE","CENTER_NAME":"EARTH","TIME_SYSTEM":"UTC"},{"EPOCH":"2021-12-16T21:49:51.439296","ARG_OF_PERICENTER":"69.8614","PERIAPSIS":"545.489","GP_ID":"191861471","ECCENTRICITY":"0.00024710","TIME_SYSTEM":"UTC","APOAPSIS":"548.911","RCS_SIZE":"LARGE","CENTER_NAME":"EARTH","FILE":"3242223","TLE_LINE1":"1 48118U 21027AC  21350.90962314  .00001631  00000-0  12836-3 0  9993","EPHEMERIS_TYPE":"0","LAUNCH_DATE":"2021-04-07","PERIOD":"95.592","INCLINATION":"53.0548","COUNTRY_CODE":"US","OBJECT_ID":"2021-027AC","CLASSIFICATION_TYPE":"U","REF_FRAME":"TEME","TLE_LINE2":"2 48118  53.0548 241.9067 0002471  69.8614 290.2641 15.06404468 40013","ELEMENT_SET_NO":"999","REV_AT_EPOCH":"4001","MEAN_ANOMALY":"290.2641","MEAN_MOTION_DDOT":"0.0000000000000","SITE":"AFETR","MEAN_MOTION":"15.06404468","DECAY_DATE":null,"BSTAR":"0.00012836000000","OBJECT_NAME":"STARLINK-2458","SEMIMAJOR_AXIS":"6925.335","RA_OF_ASC_NODE":"241.9067","OBJECT_TYPE":"PAYLOAD","NORAD_CAT_ID":"48118","MEAN_MOTION_DOT":"0.00001631","MEAN_ELEMENT_THEORY":"SGP4"},{"REV_AT_EPOCH":"3993","MEAN_ANOMALY":"288.2375","ELEMENT_SET_NO":"999","TLE_LINE2":"2 48119  53.0546 244.0061 0002326  71.8867 288.2375 15.06403661 39936","REF_FRAME":"TEME","OBJECT_ID":"2021-027AD","CLASSIFICATION_TYPE":"U","INCLINATION":"53.0546","COUNTRY_CODE":"US","NORAD_CAT_ID":"48119","MEAN_MOTION_DOT":"0.00000155","MEAN_ELEMENT_THEORY":"SGP4","OBJECT_TYPE":"PAYLOAD","SEMIMAJOR_AXIS":"6925.337","RA_OF_ASC_NODE":"244.0061","OBJECT_NAME":"STARLINK-2459","BSTAR":"0.00002929600000","SITE":"AFETR","MEAN_MOTION":"15.06403661","DECAY_DATE":null,"MEAN_MOTION_DDOT":"0.0000000000000","ECCENTRICITY":"0.00023260","GP_ID":"191829579","PERIAPSIS":"545.592","EPOCH":"2021-12-16T10:35:46.762944","ARG_OF_PERICENTER":"71.8867","PERIOD":"95.592","TLE_LINE1":"1 48119U 21027AD  21350.44151346  .00000155  00000-0  29296-4 0  9997","FILE":"3241867","EPHEMERIS_TYPE":"0","LAUNCH_DATE":"2021-04-07","APOAPSIS":"548.813","RCS_SIZE":"LARGE","CENTER_NAME":"EARTH","TIME_SYSTEM":"UTC"},{"SEMIMAJOR_AXIS":"6925.356","RA_OF_ASC_NODE":"261.6108","NORAD_CAT_ID":"48120","MEAN_ELEMENT_THEORY":"SGP4","MEAN_MOTION_DOT":"-0.00000326","OBJECT_TYPE":"PAYLOAD","SITE":"AFETR","MEAN_MOTION":"15.06397468","DECAY_DATE":null,"MEAN_MOTION_DDOT":"0.0000000000000","OBJECT_NAME":"STARLINK-2460","BSTAR":"-0.00000292930000","ELEMENT_SET_NO":"999","REV_AT_EPOCH":"3934","MEAN_ANOMALY":"289.1076","INCLINATION":"53.0562","COUNTRY_CODE":"US","TLE_LINE2":"2 48120  53.0562 261.6108 0002512  71.0185 289.1076 15.06397468 39345","REF_FRAME":"TEME","CLASSIFICATION_TYPE":"U","OBJECT_ID":"2021-027AE","PERIOD":"95.592","EPHEMERIS_TYPE":"0","TLE_LINE1":"1 48120U 21027AE  21350.97781997 -.00000326  00000-0 -29293-5 0  9998","FILE":"3242086","LAUNCH_DATE":"2021-04-07","TIME_SYSTEM":"UTC","RCS_SIZE":"LARGE","APOAPSIS":"548.961","CENTER_NAME":"EARTH","ECCENTRICITY":"0.00025120","GP_ID":"191835919","PERIAPSIS":"545.482","EPOCH":"2021-12-16T23:28:03.645408","ARG_OF_PERICENTER":"71.0185"},{"MEAN_MOTION_DOT":"0.00001720","MEAN_ELEMENT_THEORY":"SGP4","NORAD_CAT_ID":"48121","OBJECT_TYPE":"PAYLOAD","RA_OF_ASC_NODE":"252.0368","SEMIMAJOR_AXIS":"6925.333","OBJECT_NAME":"STARLINK-2462","BSTAR":"0.00013432000000","DECAY_DATE":null,"SITE":"AFETR","MEAN_MOTION":"15.06404988","MEAN_MOTION_DDOT":"0.0000000000000","MEAN_ANOMALY":"291.5817","REV_AT_EPOCH":"3986","ELEMENT_SET_NO":"999","TLE_LINE2":"2 48121  53.0559 252.0368 0002645  68.5454 291.5817 15.06404988 39864","REF_FRAME":"TEME","CLASSIFICATION_TYPE":"U","OBJECT_ID":"2021-027AF","COUNTRY_CODE":"US","INCLINATION":"53.0559","PERIOD":"95.592","LAUNCH_DATE":"2021-04-07","EPHEMERIS_TYPE":"0","TLE_LINE1":"1 48121U 21027AF  21350.88289715  .00001720  00000-0  13432-3 0  9993","FILE":"3242223","CENTER_NAME":"EARTH","RCS_SIZE":"LARGE","APOAPSIS":"549.030","TIME_SYSTEM":"UTC","GP_ID":"191861221","ECCENTRICITY":"0.00026450","PERIAPSIS":"545.367","EPOCH":"2021-12-16T21:11:22.313760","ARG_OF_PERICENTER":"68.5454"},{"TIME_SYSTEM":"UTC","RCS_SIZE":"LARGE","APOAPSIS":"548.893","CENTER_NAME":"EARTH","TLE_LINE1":"1 48122U 21027AG  21351.01696171 -.00000001  00000-0  18886-4 0  9999","EPHEMERIS_TYPE":"0","FILE":"3242108","LAUNCH_DATE":"2021-04-07","PERIOD":"95.592","EPOCH":"2021-12-17T00:24:25.491744","ARG_OF_PERICENTER":"66.7143","PERIAPSIS":"545.565","GP_ID":"191836446","ECCENTRICITY":"0.00024030","MEAN_MOTION_DDOT":"0.0000000000000","SITE":"AFETR","MEAN_MOTION":"15.06394869","DECAY_DATE":null,"BSTAR":"0.00001888600000","OBJECT_NAME":"STARLINK-2463","SEMIMAJOR_AXIS":"6925.364","RA_OF_ASC_NODE":"246.4309","OBJECT_TYPE":"PAYLOAD","NORAD_CAT_ID":"48122","MEAN_ELEMENT_THEORY":"SGP4","MEAN_MOTION_DOT":"-0.00000001","INCLINATION":"53.0552","COUNTRY_CODE":"US","CLASSIFICATION_TYPE":"U","OBJECT_ID":"2021-027AG","TLE_LINE2":"2 48122  53.0552 246.4309 0002403  66.7143 293.4099 15.06394869 39563","REF_FRAME":"TEME","ELEMENT_SET_NO":"999","REV_AT_EPOCH":"3956","MEAN_ANOMALY":"293.4099"}];
